METHANESAT              
1 59101U 24043D   26049.28045515  .00003161  00000+0  27660-3 0  9994
2 59101  97.8244 179.9248 0010842  51.1453 309.0734 14.97416442106854
GOSAT-GW (IBUKI GW)     
1 64694U 25141A   26049.28182646  .00000220  00000+0  47176-4 0  9992
2 64694  98.0487 348.5924 0001447  83.0328 277.1041 14.67557225 34409
GHGSAT-C1               
1 46278U 20061G   26049.27714512  .00027556  00000+0  30303-3 0  9992
2 46278  97.2202 131.1980 0002535 114.4425 245.7098 15.63139930304855
GHGSAT-C12              
1 64529U 25135B   26049.27996195  .00004220  00000+0  20280-3 0  9993
2 64529  97.4614 165.3199 0004242 214.4939 145.6021 15.19360172 36763
GHGSAT-C13              
1 64548U 25135W   26049.27298509  .00003740  00000+0  17648-3 0  9998
2 64548  97.4641 165.7093 0002142 127.7053 232.4377 15.20068647 36786
GHGSAT-C2               
1 47509U 21006DA  26049.07770171  .00006518  00000+0  18696-3 0  9997
2 47509  97.2331  98.3891 0003987 222.2556 137.8382 15.36205795281557
GHGSAT-C3               
1 52737U 22057F   26049.28700654  .00008183  00000+0  26266-3 0  9997
2 52737  97.6397 190.7735 0006388 174.4604 185.6709 15.32566237207319
GHGSAT-C4               
1 52746U 22057Q   26049.30650347  .00007893  00000+0  25354-3 0  9997
2 52746  97.6323 189.7457 0006874 161.0334 199.1165 15.32555877207324
GHGSAT-C5               
1 52744U 22057N   26049.32423682  .00007818  00000+0  25121-3 0  9996
2 52744  97.6486 192.2471 0007425 171.8404 188.2960 15.32544256207328
GHGSAT-C6               
1 56204U 23054AC  26049.23301722  .00014248  00000+0  26269-3 0  9998
2 56204  97.3144 317.2750 0010191 109.4433 250.7921 15.49184800160012
GHGSAT-C7               
1 56209U 23054AH  26049.23476440  .00011258  00000+0  22363-3 0  9992
2 56209  97.3103 316.2786 0010229 104.4969 255.7416 15.47093530159986
GHGSAT-C8               
1 56186U 23054J   26049.26928854  .00014724  00000+0  27132-3 0  9990
2 56186  97.3107 316.7090 0007536 121.6305 238.5682 15.49220395160001
SENTINEL-5P             
1 42969U 17064A   26048.72792765  .00000068  00000+0  53315-4 0  9997
2 42969  98.7859 351.7447 0001190  78.7328 281.3981 14.19543861432615
ENMAP                   
1 52159U 22033C   26049.24364917  .00000097  00000+0  21888-4 0  9995
2 52159  97.9772 133.1859 0001174  75.9459 284.1880 14.74941362209123
PRISMA                  
1 44072U 19015A   26049.24104303  .00001342  00000+0  16893-3 0  9990
2 44072  97.8759 125.7354 0001103  86.7736 273.3604 14.83658675374410
SENTINEL-2A             
1 40697U 15028A   26049.25673752  .00000142  00000+0  70691-4 0  9993
2 40697  98.5699 125.8441 0001083  97.6422 262.4884 14.30812229556722
SENTINEL-2B             
1 42063U 17013A   26049.25641685  .00000081  00000+0  47475-4 0  9994
2 42063  98.5700 125.7289 0001086  90.6509 269.4798 14.30812026467632
SENTINEL-2C             
1 60989U 24157A   26049.22152215  .00000132  00000+0  66895-4 0  9995
2 60989  98.5656 125.7170 0000896  87.5575 272.5711 14.30817573 75978
LANDSAT 8               
1 39084U 13008A   26049.22702273  .00000390  00000+0  96498-4 0  9993
2 39084  98.1958 121.2678 0001304  90.3013 269.8335 14.57111766680578
LANDSAT 9               
1 49260U 21088A   26049.19277653  .00000386  00000+0  95622-4 0  9995
2 49260  98.1979 121.2893 0001260  93.3911 266.7432 14.57126103233678
